NORAD_CAT_ID,OBJECT_NAME,OBJECT_TYPE,EPOCH,MEAN_MOTION,ECCENTRICITY,INCLINATION,RA_OF_ASC_NODE,ARG_OF_PERICENTER,MEAN_ANOMALY,BSTAR,MEAN_MOTION_DOT,MEAN_MOTION_DDOT,TLE_LINE0,TLE_LINE1,TLE_LINE2,SEMIMAJOR_AXIS,PERIOD,APOGEE,PERIGEE,DECAYED
53805.0,STARLINK-4763,PAYLOAD,2022-11-15 08:00:01,15.73191065,0.000413,53.2142,304.0564,3.2009,317.9873,0.00013627,0.00018543,0.0,0 STARLINK-4763,1 53805U 22111AJ  22319.33335648  .00018543  00000-0  13627-3 0  9993,2 53805  53.2142 304.0564 0004130   3.2009 317.9873 15.73191065 10191,6727.920999999999,91.534,352.564,347.00699999999995,0.0
53805.0,STARLINK-4763,PAYLOAD,2022-11-15 14:00:01,15.732204800000002,0.0004034,53.2136,302.8184,5.1761,292.6392,-0.00057347,-0.00080455,0.0,0 STARLINK-4763,1 53805U 22111AJ  22319.58334491 -.00080455  00000-0 -57347-3 0  9995,2 53805  53.2136 302.8184 0004034   5.1761 292.6392 15.73220480  1309,6727.837,91.532,352.416,346.98800000000006,0.0
53805.0,STARLINK-4763,PAYLOAD,2022-11-15 22:00:00,15.73163485,0.0003804,53.2138,301.1674,8.6622,18.0708,0.00064433,0.00090672,0.0,0 STARLINK-4763,1 53805U 22111AJ  22319.91667824  .00090672  00000-0  64433-3 0  9995,2 53805  53.2138 301.1674 0003804   8.6622  18.0708 15.73163485  1307,6727.999,91.535,352.4240000000001,347.305,0.0
53805.0,STARLINK-4763,PAYLOAD,2022-11-16 00:00:00,15.73206505,0.000379,53.214,300.7554,9.0404,129.9085,0.00016406,0.00022477,0.0,0 STARLINK-4763,1 53805U 22111AJ  22320.00001157  .00022477  00000-0  16406-3 0  9993,2 53805  53.2140 300.7554 0003790   9.0404 129.9085 15.73206505 10298,6727.877,91.533,352.291,347.19199999999995,0.0
53805.0,STARLINK-4763,PAYLOAD,2022-11-16 14:00:01,15.73228781,0.0004052,53.2155,297.8708,3.5547,201.1016,-0.00027786,-0.00039505,0.0,0 STARLINK-4763,1 53805U 22111AJ  22320.58335648 -.00039505  00000-0 -27786-3 0  9996,2 53805  53.2155 297.8708 0004052   3.5547 201.1016 15.73228781 10398,6727.813,91.532,352.404,346.952,0.0
53805.0,STARLINK-4763,PAYLOAD,2022-11-16 22:00:08,15.73215778,0.0003859,53.2168,296.2196,2.8603,291.1329,-0.00011632,-0.00016934,0.0,0 STARLINK-4763,1 53805U 22111AJ  22320.91675926 -.00016934  00000-0 -11632-3 0  9993,2 53805  53.2168 296.2196 0003859   2.8603 291.1329 15.73215778  1304,6727.85,91.532,352.311,347.119,0.0
53805.0,STARLINK-4763,PAYLOAD,2022-11-17 06:00:00,15.7327631,0.0004015,53.2136,294.5713,6.3809,16.0904,-0.00024615,-0.00035156,0.0,0 STARLINK-4763,1 53805U 22111AJ  22321.25001157 -.00035156  00000-0 -24615-3 0  9992,2 53805  53.2136 294.5713 0004015   6.3809  16.0904 15.73276310 10499,6727.678000000001,91.529,352.244,346.841,0.0
53805.0,STARLINK-4763,PAYLOAD,2022-11-17 14:00:01,15.73257246,0.0003911,53.2136,292.9206,5.6036,105.8634,-0.00062131,-0.0008718,0.0,0 STARLINK-4763,1 53805U 22111AJ  22321.58334491 -.00087180  00000-0 -62131-3 0  9997,2 53805  53.2136 292.9206 0003911   5.6036 105.8634 15.73257246  1300,6727.732,91.53,352.228,346.966,0.0
53805.0,STARLINK-4763,PAYLOAD,2022-11-17 22:00:00,15.73195931,0.0003646,53.2145,291.2699,8.0152,192.4075,0.0002185,0.00030156,0.0,0 STARLINK-4763,1 53805U 22111AJ  22321.91667824  .00030156  00000-0  21850-3 0  9995,2 53805  53.2145 291.2699 0003646   8.0152 192.4075 15.73195931 10605,6727.906999999997,91.533,352.225,347.319,0.0
53805.0,STARLINK-4763,PAYLOAD,2022-11-18 06:00:00,15.73204255,0.0003906,53.2151,289.6224,6.1682,283.1962,-0.00042648,-0.00060092,0.0,0 STARLINK-4763,1 53805U 22111AJ  22322.25001157 -.00060092  00000-0 -42648-3 0  9996,2 53805  53.2151 289.6224 0003906   6.1682 283.1962 15.73204255 10651,6727.8830000000025,91.533,352.376,347.12,0.0
53805.0,STARLINK-4763,PAYLOAD,2022-11-18 14:00:01,15.73156341,0.0003556,53.2159,287.9724,4.8668,13.3221,0.00045624,0.00063793,0.0,0 STARLINK-4763,1 53805U 22111AJ  22322.58334491  .00063793  00000-0  45624-3 0  9998,2 53805  53.2159 287.9724 0003556   4.8668  13.3221 15.73156341 10704,6728.02,91.536,352.277,347.492,0.0
53805.0,STARLINK-4763,PAYLOAD,2022-11-18 22:00:00,15.73174966,0.0003434,53.2153,286.3215,8.2366,98.8167,0.00052521,0.00073675,0.0,0 STARLINK-4763,1 53805U 22111AJ  22322.91667824  .00073675  00000-0  52521-3 0  9998,2 53805  53.2153 286.3215 0003434   8.2366  98.8167 15.73174966  1300,6727.967,91.535,352.142,347.521,0.0
53805.0,STARLINK-4763,PAYLOAD,2022-11-19 14:00:01,15.73312934,0.0003484,53.2144,283.0229,7.7212,277.2372,-0.00064576,-0.00090753,0.0,0 STARLINK-4763,1 53805U 22111AJ  22323.58334491 -.00090753  00000-0 -64576-3 0  9994,2 53805  53.2144 283.0229 0003484   7.7212 277.2372 15.73312934  1308,6727.573,91.527,351.782,347.094,0.0
53805.0,STARLINK-4763,PAYLOAD,2022-11-19 22:00:00,15.73279546,0.0003337,53.2147,281.3725,7.9774,5.995,-0.00030035,-0.0004272,0.0,0 STARLINK-4763,1 53805U 22111AJ  22323.91667824 -.00042720  00000-0 -30035-3 0  9994,2 53805  53.2147 281.3725 0003337   7.9774   5.9950 15.73279546  1304,6727.668000000002,91.529,351.778,347.288,0.0
53805.0,STARLINK-4763,PAYLOAD,2022-11-20 14:00:01,15.73162002,0.000346,53.215,278.0736,4.2946,187.6321,0.00014951,0.00020382,0.0,0 STARLINK-4763,1 53805U 22111AJ  22324.58334491  .00020382  00000-0  14951-3 0  9996,2 53805  53.2150 278.0736 0003460   4.2946 187.6321 15.73162002 11029,6728.004,91.535,352.196,347.541,0.0
53805.0,STARLINK-4763,PAYLOAD,2022-11-20 22:00:00,15.73222198,0.0003344,53.2152,276.4236,7.2901,273.5165,-0.00016907,-0.00024313,0.0,0 STARLINK-4763,1 53805U 22111AJ  22324.91667824 -.00024313  00000-0 -16907-3 0  9995,2 53805  53.2152 276.4236 0003344   7.2901 273.5165 15.73222198  1307,6727.831999999999,91.532,351.94699999999995,347.44699999999995,0.0
53805.0,STARLINK-4763,PAYLOAD,2022-11-21 14:00:01,15.73184879,0.0003361,53.2146,273.1246,7.5777,91.1092,-6.139100000000001e-05,-9.227e-05,0.0,0 STARLINK-4763,1 53805U 22111AJ  22325.58334491 -.00009227  00000-0 -61391-4 0  9995,2 53805  53.2146 273.1246 0003361   7.5777  91.1092 15.73184879  1304,6727.938,91.534,352.065,347.542,0.0
53805.0,STARLINK-4763,PAYLOAD,2022-11-21 22:00:00,15.73194261,0.0003218,53.2149,271.4748,8.7642,178.8173,0.00045271,0.00063391,0.0,0 STARLINK-4763,1 53805U 22111AJ  22325.91667824  .00063391  00000-0  45271-3 0  9999,2 53805  53.2149 271.4748 0003218   8.7642 178.8173 15.73194261 11232,6727.9119999999975,91.534,351.94199999999995,347.611,0.0
53805.0,STARLINK-4763,PAYLOAD,2022-11-22 14:00:01,15.7319743,0.0003311,53.2154,268.1756,8.3602,357.2026,-0.00024275,-0.00034559,0.0,0 STARLINK-4763,1 53805U 22111AJ  22326.58335648 -.00034559  00000-0 -24275-3 0  9996,2 53805  53.2154 268.1756 0003311   8.3602 357.2026 15.73197430 11338,6727.903,91.533,351.995,347.54,0.0
53805.0,STARLINK-4763,PAYLOAD,2022-11-22 22:00:00,15.73228683,0.0003297,53.2155,266.5261,11.5825,82.8164,-0.00026237,-0.00037339,0.0,0 STARLINK-4763,1 53805U 22111AJ  22326.91667824 -.00037339  00000-0 -26237-3 0  9996,2 53805  53.2155 266.5261 0003297  11.5825  82.8164 15.73228683 11382,6727.813,91.532,351.897,347.46,0.0
53805.0,STARLINK-4763,PAYLOAD,2022-11-23 14:00:01,15.73154519,0.0003239,53.215,263.22700000000003,6.4336,265.8233,8.742e-05,0.00011642,0.0,0 STARLINK-4763,1 53805U 22111AJ  22327.58334491  .00011642  00000-0  87420-4 0  9990,2 53805  53.2150 263.2270 0003239   6.4336 265.8233 15.73154519  1304,6728.025,91.536,352.069,347.711,0.0
53805.0,STARLINK-4763,PAYLOAD,2022-11-23 22:00:00,15.73189929,0.0003157,53.2153,261.5778,7.1622,353.9654,0.00022772,0.00031449,0.0,0 STARLINK-4763,1 53805U 22111AJ  22327.91667824  .00031449  00000-0  22772-3 0  9991,2 53805  53.2153 261.5778 0003157   7.1622 353.9654 15.73189929  1316,6727.924,91.534,351.913,347.665,0.0
53805.0,STARLINK-4763,PAYLOAD,2022-11-24 00:00:00,15.73198005,0.0003237,53.2151,261.166,7.4287,105.9277,0.00018529,0.00025464,0.0,0 STARLINK-4763,1 53805U 22111AJ  22328.00001157  .00025464  00000-0  18529-3 0  9998,2 53805  53.2151 261.1660 0003237   7.4287 105.9277 15.73198005 11557,6727.901,91.533,351.944,347.588,0.0
53805.0,STARLINK-4763,PAYLOAD,2022-11-24 14:00:01,15.73182801,0.0003281,53.2156,258.2786,11.0588,167.9612,0.00024294,0.00033592,0.0,0 STARLINK-4763,1 53805U 22111AJ  22328.58334491  .00033592  00000-0  24294-3 0  9998,2 53805  53.2156 258.2786 0003281  11.0588 167.9612 15.73182801 11640,6727.944,91.534,352.017,347.602,0.0
53805.0,STARLINK-4763,PAYLOAD,2022-11-24 22:00:00,15.73267986,0.0003217,53.2156,256.6295,12.9942,254.9425,-0.00052845,-0.00074374,0.0,0 STARLINK-4763,1 53805U 22111AJ  22328.91667824 -.00074374  00000-0 -52845-3 0  9992,2 53805  53.2156 256.6295 0003217  12.9942 254.9425 15.73267986  1309,6727.701,91.529,351.731,347.402,0.0
53805.0,STARLINK-4763,PAYLOAD,2022-11-25 14:00:01,15.73156498,0.0003104,53.2148,253.3301,7.4298,78.4136,0.00055325,0.00077613,0.0,0 STARLINK-4763,1 53805U 22111AJ  22329.58334491  .00077613  00000-0  55325-3 0  9990,2 53805  53.2148 253.3301 0003104   7.4298  78.4136 15.73156498  1303,6728.019,91.536,351.973,347.796,0.0
53805.0,STARLINK-4763,PAYLOAD,2022-11-25 22:00:00,15.73236567,0.000309,53.2149,251.6813,9.3103,165.4455,0.00033325,0.00046489,0.0,0 STARLINK-4763,1 53805U 22111AJ  22329.91667824  .00046489  00000-0  33325-3 0  9999,2 53805  53.2149 251.6813 0003090   9.3103 165.4455 15.73236567  1300,6727.791,91.531,351.735,347.577,0.0
53805.0,STARLINK-4763,PAYLOAD,2022-11-26 14:00:01,15.73236016,0.000312,53.215,248.3814,9.7151,343.0545,-0.00024916,-0.00035507,0.0,0 STARLINK-4763,1 53805U 22111AJ  22330.58334491 -.00035507  00000-0 -24916-3 0  9992,2 53805  53.2150 248.3814 0003120   9.7151 343.0545 15.73236016 11963,6727.792,91.531,351.75699999999995,347.55800000000005,0.0
53805.0,STARLINK-4763,PAYLOAD,2022-11-26 22:00:00,15.732378,0.000319,53.2149,246.7326,13.4929,68.2333,-0.00070752,-0.00098952,0.0,0 STARLINK-4763,1 53805U 22111AJ  22330.91667824 -.00098952  00000-0 -70752-3 0  9990,2 53805  53.2149 246.7326 0003190  13.4929  68.2333 15.73237800  1303,6727.7869999999975,91.531,351.7990000000001,347.506,0.0
